ONEWEB-0341             
1 49207U 21083X   26159.03509066 -.00000115  00000+0 -32367-3 0  9990
2 49207  87.9162 337.2802 0002071 104.1601 255.9761 13.18686237228782
ONEWEB-0342             
1 49208U 21083Y   26158.88127088  .00000003  00000+0 -24313-4 0  9991
2 49208  87.9188 276.2915 0001887 102.2055 257.9289 13.20770458235556
ONEWEB-0343             
1 49209U 21083Z   26159.04352699 -.00000014  00000+0 -67759-4 0  9993
2 49209  87.9165 337.2768 0001465  98.6050 261.5248 13.18686147228838
ONEWEB-0344             
1 49210U 21083AA  26158.75000972  .00000354  00000+0  93565-3 0  9994
2 49210  87.8936 322.1214 0002000 104.7604 255.3747 13.13471462229657
ONEWEB-0345             
1 49211U 21083AB  26158.97007242  .00000251  00000+0  65178-3 0  9991
2 49211  87.8953 322.0569 0001953 103.6956 256.4391 13.13471089229699
ONEWEB-0346             
1 49212U 21083AC  26159.04014906 -.00000008  00000+0 -52524-4 0  9990
2 49212  87.9159 337.2783 0002464  84.9096 275.2317 13.18685483228774
ONEWEB-0348             
1 49213U 21083AD  26158.79540888  .00000045  00000+0  79949-4 0  9994
2 49213  87.9191 276.3123 0002486 101.6314 258.5098 13.20770041235570
ONEWEB-0350             
1 49214U 21083AE  26158.90682941  .00000419  00000+0  11205-2 0  9999
2 49214  87.8952 322.0726 0001971 100.2671 259.8680 13.12942934229715
ONEWEB-0351             
1 49215U 21083AF  26158.78852532 -.00000018  00000+0 -76856-4 0  9993
2 49215  87.9194 276.3123 0001581 127.5076 232.6201 13.20770195235537
ONEWEB-0352             
1 49216U 21083AG  26158.95991862  .00000091  00000+0  21385-3 0  9998
2 49216  87.8947 322.0707 0001472 103.8387 256.2906 13.13470626229817
ONEWEB-0354             
1 49217U 21083AH  26158.89138176  .00000063  00000+0  12193-3 0  9999
2 49217  87.9192 276.2912 0002335 104.3614 255.7779 13.20772329235583
ONEWEB-0355             
1 49218U 21083AJ  26159.14119200  .00000279  00000+0  72811-3 0  9998
2 49218  87.8944 322.0361 0001745 101.7195 258.4130 13.13469298229714
ONEWEB-0357             
1 49219U 21083AK  26158.88801291  .00000047  00000+0  84472-4 0  9997
2 49219  87.9190 276.2860 0001826 105.1332 255.0003 13.20771334235583
ONEWEB-0332             
1 49279U 21090A   26159.08448480 -.00000160  00000+0 -46609-3 0  9998
2 49279  87.8958 291.5234 0001642  97.0402 263.0915 13.14503980226380
ONEWEB-0347             
1 49280U 21090B   26158.87790454  .00000028  00000+0  36451-4 0  9993
2 49280  87.9192 276.2961 0001735  96.3958 263.7373 13.20770616229816
ONEWEB-0349             
1 49281U 21090C   26159.06141435 -.00000035  00000+0 -11865-3 0  9996
2 49281  87.9191 276.2601 0001965 101.3716 258.7638 13.20771169228621
ONEWEB-0353             
1 49282U 21090D   26159.07657448 -.00000054  00000+0 -17920-3 0  9993
2 49282  87.8961 291.5204 0001663  95.7192 264.4127 13.14502598226383
ONEWEB-0356             
1 49283U 21090E   26159.05973044  .00000037  00000+0  59822-4 0  9992
2 49283  87.9192 276.2538 0002351  81.4126 278.7274 13.20772688228621
ONEWEB-0358             
1 49284U 21090F   26159.08917514  .00000002  00000+0 -26269-4 0  9998
2 49284  87.9195 276.2517 0002155 100.0579 260.0798 13.20770514229356
ONEWEB-0359             
1 49285U 21090G   26159.08666308 -.00000005  00000+0 -44058-4 0  9991
2 49285  87.9191 276.2481 0002250 102.6064 257.5321 13.20772635229333
ONEWEB-0360             
1 49286U 21090H   26159.07655970 -.00001071  00000+0 -26666-2 0  9991
2 49286  87.9193 276.2564 0001967 104.2928 255.8424 13.20760863228647
ONEWEB-0361             
1 49287U 21090J   26159.05803152  .00000074  00000+0  15005-3 0  9993
2 49287  87.9185 276.2585 0002099 100.0523 260.0847 13.20770748229094
ONEWEB-0362             
1 49288U 21090K   26159.15501858  .00000023  00000+0  24685-4 0  9992
2 49288  87.9162 306.7782 0001773 105.6344 254.4985 13.19724019225722
ONEWEB-0363             
1 49289U 21090L   26159.07317713  .00000036  00000+0  57298-4 0  9999
2 49289  87.9188 276.2557 0002143  92.5457 267.5922 13.20769889229101
ONEWEB-0364             
1 49290U 21090M   26158.88463691  .00000014  00000+0  34817-5 0  9995
2 49290  87.9185 276.3016 0001973 101.1826 258.9530 13.20770465230213
ONEWEB-0365             
1 49291U 21090N   26159.16450250 -.00000011  00000+0 -59687-4 0  9995
2 49291  87.9172 306.7641 0001765  98.0357 262.0976 13.19723685225230
ONEWEB-0366             
1 49292U 21090P   26159.07339931 -.00000077  00000+0 -24324-3 0  9999
2 49292  87.8957 291.5233 0001919  99.6382 260.4964 13.14502207226369
ONEWEB-0367             
1 49293U 21090Q   26159.07234818 -.00000681  00000+0 -17062-2 0  9999
2 49293  87.9189 276.2572 0001909 127.2068 232.9240 13.20774272228624
ONEWEB-0368             
1 49294U 21090R   26158.89472269  .00000146  00000+0  32686-3 0  9997
2 49294  87.9178 276.3039 0001695  78.8021 281.3303 13.20769886229752
ONEWEB-0369             
1 49295U 21090S   26159.15976679  .00000152  00000+0  34681-3 0  9996
2 49295  87.9164 306.7734 0001751  95.4351 264.6981 13.19724408225225
