OBJECT_NAME,OBJECT_ID,EPOCH,MEAN_MOTION,ECCENTRICITY,INCLINATION,RA_OF_ASC_NODE,ARG_OF_PERICENTER,MEAN_ANOMALY,EPHEMERIS_TYPE,CLASSIFICATION_TYPE,NORAD_CAT_ID,ELEMENT_SET_NO,REV_AT_EPOCH,BSTAR,MEAN_MOTION_DOT,MEAN_MOTION_DDOT
ONEWEB-0341,2021-083X,2026-06-08T00:50:31.833024,13.18686237,.0002071,87.9162,337.2802,104.1601,255.9761,0,U,49207,999,22878,-.32367E-3,-.115E-5,0
ONEWEB-0342,2021-083Y,2026-06-07T21:09:01.804032,13.20770458,.0001887,87.9188,276.2915,102.2055,257.9289,0,U,49208,999,23555,-.24313E-4,.3E-7,0
ONEWEB-0343,2021-083Z,2026-06-08T01:02:40.731936,13.18686147,.0001465,87.9165,337.2768,98.6050,261.5248,0,U,49209,999,22883,-.67759E-4,-.14E-6,0
ONEWEB-0344,2021-083AA,2026-06-07T18:00:00.839808,13.13471462,.0002,87.8936,322.1214,104.7604,255.3747,0,U,49210,999,22965,.93565E-3,.354E-5,0
ONEWEB-0345,2021-083AB,2026-06-07T23:16:54.257088,13.13471089,.0001953,87.8953,322.0569,103.6956,256.4391,0,U,49211,999,22969,.65178E-3,.251E-5,0
ONEWEB-0346,2021-083AC,2026-06-08T00:57:48.878784,13.18685483,.0002464,87.9159,337.2783,84.9096,275.2317,0,U,49212,999,22877,-.52524E-4,-.8E-7,0
ONEWEB-0348,2021-083AD,2026-06-07T19:05:23.327232,13.20770041,.0002486,87.9191,276.3123,101.6314,258.5098,0,U,49213,999,23557,.79949E-4,.45E-6,0
ONEWEB-0350,2021-083AE,2026-06-07T21:45:50.061024,13.12942934,.0001971,87.8952,322.0726,100.2671,259.8680,0,U,49214,999,22971,.11205E-2,.419E-5,0
ONEWEB-0351,2021-083AF,2026-06-07T18:55:28.587648,13.20770195,.0001581,87.9194,276.3123,127.5076,232.6201,0,U,49215,999,23553,-.76856E-4,-.18E-6,0
ONEWEB-0352,2021-083AG,2026-06-07T23:02:16.968768,13.13470626,.0001472,87.8947,322.0707,103.8387,256.2906,0,U,49216,999,22981,.21385E-3,.91E-6,0
ONEWEB-0354,2021-083AH,2026-06-07T21:23:35.384064,13.20772329,.0002335,87.9192,276.2912,104.3614,255.7779,0,U,49217,999,23558,.12193E-3,.63E-6,0
ONEWEB-0355,2021-083AJ,2026-06-08T03:23:18.988800,13.13469298,.0001745,87.8944,322.0361,101.7195,258.4130,0,U,49218,999,22971,.72811E-3,.279E-5,0
ONEWEB-0357,2021-083AK,2026-06-07T21:18:44.315424,13.20771334,.0001826,87.9190,276.2860,105.1332,255.0003,0,U,49219,999,23558,.84472E-4,.47E-6,0
ONEWEB-0332,2021-090A,2026-06-08T02:01:39.486720,13.14503980,.0001642,87.8958,291.5234,97.0402,263.0915,0,U,49279,999,22638,-.46609E-3,-.16E-5,0
ONEWEB-0347,2021-090B,2026-06-07T21:04:10.952256,13.20770616,.0001735,87.9192,276.2961,96.3958,263.7373,0,U,49280,999,22981,.36451E-4,.28E-6,0
ONEWEB-0349,2021-090C,2026-06-08T01:28:26.199840,13.20771169,.0001965,87.9191,276.2601,101.3716,258.7638,0,U,49281,999,22862,-.11865E-3,-.35E-6,0
ONEWEB-0353,2021-090D,2026-06-08T01:50:16.035072,13.14502598,.0001663,87.8961,291.5204,95.7192,264.4127,0,U,49282,999,22638,-.1792E-3,-.54E-6,0
ONEWEB-0356,2021-090E,2026-06-08T01:26:00.710016,13.20772688,.0002351,87.9192,276.2538,81.4126,278.7274,0,U,49283,999,22862,.59822E-4,.37E-6,0
ONEWEB-0358,2021-090F,2026-06-08T02:08:24.732096,13.20770514,.0002155,87.9195,276.2517,100.0579,260.0798,0,U,49284,999,22935,-.26269E-4,.2E-7,0
ONEWEB-0359,2021-090G,2026-06-08T02:04:47.690112,13.20772635,.000225,87.9191,276.2481,102.6064,257.5321,0,U,49285,999,22933,-.44058E-4,-.5E-7,0
ONEWEB-0360,2021-090H,2026-06-08T01:50:14.758080,13.20760863,.0001967,87.9193,276.2564,104.2928,255.8424,0,U,49286,999,22864,-.26666E-2,-.1071E-4,0
ONEWEB-0361,2021-090J,2026-06-08T01:23:33.923328,13.20770748,.0002099,87.9185,276.2585,100.0523,260.0847,0,U,49287,999,22909,.15005E-3,.74E-6,0
ONEWEB-0362,2021-090K,2026-06-08T03:43:13.605312,13.19724019,.0001773,87.9162,306.7782,105.6344,254.4985,0,U,49288,999,22572,.24685E-4,.23E-6,0
ONEWEB-0363,2021-090L,2026-06-08T01:45:22.504032,13.20769889,.0002143,87.9188,276.2557,92.5457,267.5922,0,U,49289,999,22910,.57298E-4,.36E-6,0
ONEWEB-0364,2021-090M,2026-06-07T21:13:52.629024,13.20770465,.0001973,87.9185,276.3016,101.1826,258.9530,0,U,49290,999,23021,.34817E-5,.14E-6,0
ONEWEB-0365,2021-090N,2026-06-08T03:56:53.016000,13.19723685,.0001765,87.9172,306.7641,98.0357,262.0976,0,U,49291,999,22523,-.59687E-4,-.11E-6,0
ONEWEB-0366,2021-090P,2026-06-08T01:45:41.700384,13.14502207,.0001919,87.8957,291.5233,99.6382,260.4964,0,U,49292,999,22636,-.24324E-3,-.77E-6,0
ONEWEB-0367,2021-090Q,2026-06-08T01:44:10.882752,13.20774272,.0001909,87.9189,276.2572,127.2068,232.9240,0,U,49293,999,22862,-.17062E-2,-.681E-5,0
ONEWEB-0368,2021-090R,2026-06-07T21:28:24.040416,13.20769886,.0001695,87.9178,276.3039,78.8021,281.3303,0,U,49294,999,22975,.32686E-3,.146E-5,0
ONEWEB-0369,2021-090S,2026-06-08T03:50:03.850656,13.19724408,.0001751,87.9164,306.7734,95.4351,264.6981,0,U,49295,999,22522,.34681E-3,.152E-5,0
